[
    {
        "Altitude(m)": 717179.3262249042,
        "Argument of Periapsis(deg)": 0.010251109067964361,
        "Eccentricity": 0.0,
        "Inclination(deg)": 45.0,
        "Latitude(deg)": -43.44595514734237,
        "Longitude(deg)": -95.28796639428805,
        "Mean Anomaly(deg)": -104.16560501726724,
        "RAAN(deg)": 114.99032325268762,
        "Satellite Name": "Constellation 1 521",
        "Satellite Number": 521,
        "Semi-Major Axis(m)": 7083131.272910544,
        "Time(s)": 171
    },
    {
        "Altitude(m)": 717185.2557492058,
        "Argument of Periapsis(deg)": 0.010311057074209765,
        "Eccentricity": 0.0,
        "Inclination(deg)": 45.0,
        "Latitude(deg)": -43.4603131291191,
        "Longitude(deg)": -95.21123344933584,
        "Mean Anomaly(deg)": -104.10490387701736,
        "RAAN(deg)": 114.99026666352204,
        "Satellite Name": "Constellation 1 521",
        "Satellite Number": 521,
        "Semi-Major Axis(m)": 7083131.272910544,
        "Time(s)": 172
    },
    {
        "Altitude(m)": 717191.1614413639,
        "Argument of Periapsis(deg)": 0.010371005080455171,
        "Eccentricity": 0.0,
        "Inclination(deg)": 45.0,
        "Latitude(deg)": -43.47461390716017,
        "Longitude(deg)": -95.13446240006388,
        "Mean Anomaly(deg)": -104.04420273676747,
        "RAAN(deg)": 114.99021007435647,
        "Satellite Name": "Constellation 1 521",
        "Satellite Number": 521,
        "Semi-Major Axis(m)": 7083131.272910544,
        "Time(s)": 173
    },
    {
        "Altitude(m)": 717197.04327963,
        "Argument of Periapsis(deg)": 0.010430953086700577,
        "Eccentricity": 0.0,
        "Inclination(deg)": 45.0,
        "Latitude(deg)": -43.48885742662435,
        "Longitude(deg)": -95.0576533617021,
        "Mean Anomaly(deg)": -103.98350159651756,
        "RAAN(deg)": 114.9901534851909,
        "Satellite Name": "Constellation 1 521",
        "Satellite Number": 521,
        "Semi-Major Axis(m)": 7083131.272910544,
        "Time(s)": 174
    },
    {
        "Altitude(m)": 717202.9012423294,
        "Argument of Periapsis(deg)": 0.010490901092945983,
        "Eccentricity": 0.0,
        "Inclination(deg)": 45.0,
        "Latitude(deg)": -43.50304363282461,
        "Longitude(deg)": -94.98080645002614,
        "Mean Anomaly(deg)": -103.9228004562677,
        "RAAN(deg)": 114.99009689602534,
        "Satellite Name": "Constellation 1 521",
        "Satellite Number": 521,
        "Semi-Major Axis(m)": 7083131.272910544,
        "Time(s)": 175
    },
    {
        "Altitude(m)": 717208.7353078804,
        "Argument of Periapsis(deg)": 0.010550849099191389,
        "Eccentricity": 0.0,
        "Inclination(deg)": 45.0,
        "Latitude(deg)": -43.51717247122905,
        "Longitude(deg)": -94.90392178135646,
        "Mean Anomaly(deg)": -103.86209931601776,
        "RAAN(deg)": 114.99004030685978,
        "Satellite Name": "Constellation 1 521",
        "Satellite Number": 521,
        "Semi-Major Axis(m)": 7083131.272910544,
        "Time(s)": 176
    },
    {
        "Altitude(m)": 717214.545454792,
        "Argument of Periapsis(deg)": 0.010610797105436795,
        "Eccentricity": 0.0,
        "Inclination(deg)": 45.0,
        "Latitude(deg)": -43.53124388746165,
        "Longitude(deg)": -94.82699947255827,
        "Mean Anomaly(deg)": -103.8013981757679,
        "RAAN(deg)": 114.9899837176942,
        "Satellite Name": "Constellation 1 521",
        "Satellite Number": 521,
        "Semi-Major Axis(m)": 7083131.272910544,
        "Time(s)": 177
    },
    {
        "Altitude(m)": 717220.3316616558,
        "Argument of Periapsis(deg)": 0.0106707451116822,
        "Eccentricity": 0.0,
        "Inclination(deg)": 45.0,
        "Latitude(deg)": -43.54525782730329,
        "Longitude(deg)": -94.75003980913733,
        "Mean Anomaly(deg)": -103.74069703551795,
        "RAAN(deg)": 114.98992712852863,
        "Satellite Name": "Constellation 1 521",
        "Satellite Number": 521,
        "Semi-Major Axis(m)": 7083131.272910544,
        "Time(s)": 178
    },
    {
        "Altitude(m)": 717226.0939071528,
        "Argument of Periapsis(deg)": 0.010730693117927606,
        "Eccentricity": 0.0,
        "Inclination(deg)": 45.0,
        "Latitude(deg)": -43.55921423669273,
        "Longitude(deg)": -94.6730425728509,
        "Mean Anomaly(deg)": -103.67999589526812,
        "RAAN(deg)": 114.98987053936305,
        "Satellite Name": "Constellation 1 521",
        "Satellite Number": 521,
        "Semi-Major Axis(m)": 7083131.272910544,
        "Time(s)": 179
    },
    {
        "Altitude(m)": 717231.8321700508,
        "Argument of Periapsis(deg)": 0.01079064112417301,
        "Eccentricity": 0.0,
        "Inclination(deg)": 45.0,
        "Latitude(deg)": -43.57311306172731,
        "Longitude(deg)": -94.59600805029004,
        "Mean Anomaly(deg)": -103.61929475501819,
        "RAAN(deg)": 114.98981395019749,
        "Satellite Name": "Constellation 1 521",
        "Satellite Number": 521,
        "Semi-Major Axis(m)": 7083131.272910544,
        "Time(s)": 180
    },
    {
        "Altitude(m)": 717237.5464292066,
        "Argument of Periapsis(deg)": 0.010850589130418416,
        "Eccentricity": 0.0,
        "Inclination(deg)": 45.0,
        "Latitude(deg)": -43.5869542486639,
        "Longitude(deg)": -94.51893636049041,
        "Mean Anomaly(deg)": -103.55859361476823,
        "RAAN(deg)": 114.9897573610319,
        "Satellite Name": "Constellation 1 521",
        "Satellite Number": 521,
        "Semi-Major Axis(m)": 7083131.272910544,
        "Time(s)": 181
    },
    {
        "Altitude(m)": 717243.23666356,
        "Argument of Periapsis(deg)": 0.01091053713666382,
        "Eccentricity": 0.0,
        "Inclination(deg)": 45.0,
        "Latitude(deg)": -43.60073774391982,
        "Longitude(deg)": -94.44182762302867,
        "Mean Anomaly(deg)": -103.49789247451838,
        "RAAN(deg)": 114.98970077186635,
        "Satellite Name": "Constellation 1 521",
        "Satellite Number": 521,
        "Semi-Major Axis(m)": 7083131.272910544,
        "Time(s)": 182
    },
    {
        "Altitude(m)": 717248.9028521487,
        "Argument of Periapsis(deg)": 0.010970485142909228,
        "Eccentricity": 0.0,
        "Inclination(deg)": 45.0,
        "Latitude(deg)": -43.61446349407376,
        "Longitude(deg)": -94.36468195802112,
        "Mean Anomaly(deg)": -103.4371913342685,
        "RAAN(deg)": 114.98964418270076,
        "Satellite Name": "Constellation 1 521",
        "Satellite Number": 521,
        "Semi-Major Axis(m)": 7083131.272910544,
        "Time(s)": 183
    },
    {
        "Altitude(m)": 717254.544974085,
        "Argument of Periapsis(deg)": 0.011030433149154634,
        "Eccentricity": 0.0,
        "Inclination(deg)": 45.0,
        "Latitude(deg)": -43.6281314458667,
        "Longitude(deg)": -94.28749948612358,
        "Mean Anomaly(deg)": -103.37649019401856,
        "RAAN(deg)": 114.9895875935352,
        "Satellite Name": "Constellation 1 521",
        "Satellite Number": 521,
        "Semi-Major Axis(m)": 7083131.272910544,
        "Time(s)": 184
    },
    {
        "Altitude(m)": 717260.1630085817,
        "Argument of Periapsis(deg)": 0.01109038115540004,
        "Eccentricity": 0.0,
        "Inclination(deg)": 45.0,
        "Latitude(deg)": -43.64174154620259,
        "Longitude(deg)": -94.21028049662797,
        "Mean Anomaly(deg)": -103.31578905376867,
        "RAAN(deg)": 114.98953100436965,
        "Satellite Name": "Constellation 1 521",
        "Satellite Number": 521,
        "Semi-Major Axis(m)": 7083131.272910544,
        "Time(s)": 185
    },
    {
        "Altitude(m)": 717265.7569349324,
        "Argument of Periapsis(deg)": 0.011150329161645444,
        "Eccentricity": 0.0,
        "Inclination(deg)": 45.0,
        "Latitude(deg)": -43.65529374214963,
        "Longitude(deg)": -94.13302477507189,
        "Mean Anomaly(deg)": -103.25508791351885,
        "RAAN(deg)": 114.98947441520406,
        "Satellite Name": "Constellation 1 521",
        "Satellite Number": 521,
        "Semi-Major Axis(m)": 7083131.272910544,
        "Time(s)": 186
    },
    {
        "Altitude(m)": 717271.3267325175,
        "Argument of Periapsis(deg)": 0.01121027716789085,
        "Eccentricity": 0.0,
        "Inclination(deg)": 45.0,
        "Latitude(deg)": -43.66878798094075,
        "Longitude(deg)": -94.05573261182133,
        "Mean Anomaly(deg)": -103.19438677326887,
        "RAAN(deg)": 114.9894178260385,
        "Satellite Name": "Constellation 1 521",
        "Satellite Number": 521,
        "Semi-Major Axis(m)": 7083131.272910544,
        "Time(s)": 187
    },
    {
        "Altitude(m)": 717276.872380814,
        "Argument of Periapsis(deg)": 0.011270225174136258,
        "Eccentricity": 0.0,
        "Inclination(deg)": 45.0,
        "Latitude(deg)": -43.68222420997468,
        "Longitude(deg)": -93.97840412968172,
        "Mean Anomaly(deg)": -103.13368563301894,
        "RAAN(deg)": 114.98936123687291,
        "Satellite Name": "Constellation 1 521",
        "Satellite Number": 521,
        "Semi-Major Axis(m)": 7083131.272910544,
        "Time(s)": 188
    },
    {
        "Altitude(m)": 717282.3938593768,
        "Argument of Periapsis(deg)": 0.011330173180381662,
        "Eccentricity": 0.0,
        "Inclination(deg)": 45.0,
        "Latitude(deg)": -43.69560237681689,
        "Longitude(deg)": -93.90103945199357,
        "Mean Anomaly(deg)": -103.07298449276905,
        "RAAN(deg)": 114.98930464770736,
        "Satellite Name": "Constellation 1 521",
        "Satellite Number": 521,
        "Semi-Major Axis(m)": 7083131.272910544,
        "Time(s)": 189
    }
]